#aV2012  7 17  0  0  0.00000000     288 DD+AD WGS84 FIT  NGA
## 1697 172800.00000000   300.00000000 56125 0.0000000000000
+   31     1  2  3  4  5  6  7  8  9 10 11 12 13 14 15 16 17
+         18 19 20 21 22 23 25 26 27 28 29 30 31 32  0  0  0
+          0  0  0  0  0  0  0  0  0  0  0  0  0  0  0  0  0
+          0  0  0  0  0  0  0  0  0  0  0  0  0  0  0  0  0
+          0  0  0  0  0  0  0  0  0  0  0  0  0  0  0  0  0
++         2  2  2  2  2  2  2  2  2  2  2  2  2  2  2  2  2
++         2  2  2  2  2  2  2  2  2  2  2  2  2  2  2  0  0
++         0  0  0  0  0  0  0  0  0  0  0  0  0  0  0  0  0
++         0  0  0  0  0  0  0  0  0  0  0  0  0  0  0  0  0
++         0  0  0  0  0  0  0  0  0  0  0  0  0  0  0  0  0
%c cc cc ccc ccc cccc cccc cccc cccc ccccc ccccc ccccc ccccc
%c cc cc ccc ccc cccc cccc cccc cccc ccccc ccccc ccccc ccccc
%f  0.0000000  0.000000000  0.00000000000  0.000000000000000
%f  0.0000000  0.000000000  0.00000000000  0.000000000000000
%i    0    0    0    0      0      0      0      0         0
%i    0    0    0    0      0      0      0      0         0
/*      NGA, ST. LOUIS,MO.                                  
/*   EPHEMERIS COMPUTED FROM  1 DAYS OF DATA
/*   EPOCHA SMOOTHER  
/* CCCCCCCCCCCCCCCCCCCCCCCCCCCCCCCCCCCCCCCCCCCCCCCCCCCCCCCCC
*  2012  7 17 21 10  0.00000000                                                 
P  1  13647.631999 -16479.928909  15699.355138    265.952850                    
V  1  -1042.968332  20043.209807  21976.910512      0.015496                    
P  2 -14147.262692  -8574.832630 -20724.246144    397.108506                    
V  2   4274.628601 -26288.833506   7402.326840      0.011843                    
P  3  24163.332704   8897.256797   6576.401149     76.614544                    
V  3   5893.189443   7542.061345 -29421.185043      0.047810                    
P  4  -8161.991481 -20215.183200 -15206.943071    246.797073                    
V  4   5537.764480 -18427.414347  22200.369747      0.113101                    
P  5 -23545.827485   -401.819665 -12426.391661   -335.506609                    
V  5  13765.799446  -7997.583974 -25734.265794     -0.034524                    
P  6  23023.418944  13086.874887   3745.799083      5.559908                    
V  6   1887.282036   5253.315885 -30585.593962     -0.051902                    
P  7   7283.272005 -25017.431690  -4313.990044    101.436545                    
V  7   1549.934026   5887.028187 -31633.643625      0.038520                    
P  8   -200.383309 -24378.412682   9851.438528      1.795534                    
V  8   4999.837962 -11667.871493 -29542.823058      0.001102                    
P  9 -14035.390711  12625.506272  18149.018664    172.393305                    
V  9   2240.849313 -24051.876154  17868.804908      0.025879                    
P 10  -9831.193298 -12851.682407 -21367.119755    -45.121927                    
V 10  24819.094781  -9417.205270  -5426.782180     -0.013171                    
P 11  14434.249546 -10514.211002  19194.130826   -282.754525                    
V 11   5016.332461  25198.077133  10148.041994     -0.039286                    
P 12 -23588.017964  11284.844723  -4036.719094     80.466737                    
V 12  -5606.265236   -464.737456  31764.323301      0.020756                    
P 13   2697.520446 -16537.169633 -20719.180356    193.987258                    
V 13  19121.393880  17564.603787 -11713.452394     -0.024587                    
P 14  12906.864331  21107.489156  10047.912797    207.225520                    
V 14 -10384.252858  -7056.332438  28543.090678      0.006470                    
P 15 -19151.650004   2014.926885  18373.481090    -92.617259                    
V 15 -17498.260593 -15499.374972 -16321.153911     -0.003932                    
P 16  23456.785931   1090.087774 -12719.782226   -241.344296                    
V 16 -14662.645417   6566.506453 -26175.718885     -0.010379                    
P 17 -12505.547243 -20950.139218  10959.820056    112.548389                    
V 17  11641.000341   7279.759765  27420.337330     -0.031044                    
P 18  -7596.731281  17669.967984  18541.789123    205.709441                    
V 18 -22262.636453   6221.350458 -15729.299935      0.018180                    
P 19  19886.688192   2100.540632  17619.430149   -285.617350                    
V 19  15060.250372  16553.473176 -18517.144699     -0.036276                    
P 20  20842.089546 -14896.119282  -7035.908289     64.907282                    
V 20   9504.998780   -221.645437  29342.041969      0.004267                    
P 21  -3979.705995  25938.832566    260.911869   -237.228131                    
V 21  -4170.734293   -925.126153 -31454.965924     -0.024672                    
P 22   8098.348212  14014.482970  21256.210597    145.611227                    
V 22 -24889.643987   9623.595446   3035.121573      0.005605                    
P 23  13430.911046  -8296.050400 -21363.539459    184.418297                    
V 23  20692.944757  17624.221609   5773.765183     -0.038615                    
P 25 -13902.455029  16746.738684 -15218.673312     37.489250                    
V 25 -18593.604124   5358.990468  23003.419118      0.008358                    
P 26 -21634.004245 -11787.114469   9758.156327   -343.420257                    
V 26  -8252.376224 -10400.441780 -28678.419526      0.113678                    
P 27 -15128.494785   6433.388624  21352.429009    410.291133                    
V 27   2261.852017 -25699.159037  10121.410983      0.040913                    
P 28  -4267.285475 -14447.346802  22428.162447    165.933846                    
V 28  25771.793121  -8339.380883   -691.937975      0.037650                    
P 29  -6428.763088  14186.342654 -21457.916333    334.600636                    
V 29 -20808.803839 -17790.875392  -5468.266986      0.038691                    
P 30  16287.522841   7425.136754 -19984.656344   -304.390009                    
V 30 -21439.496870  12091.227281 -13228.913627     -0.232522                    
P 31   8034.264625  18761.917937 -16673.495282    260.979718                    
V 31  -5336.471873  20975.898965  21032.997225      0.027785                    
P 32  25363.874029  -6921.790654    523.466011   -466.260853                    
V 32    566.343930   3533.711201  31845.065654     -0.042816                    
EOF
